NORAD_CAT_ID,OBJECT_NAME,OBJECT_TYPE,EPOCH,MEAN_MOTION,ECCENTRICITY,INCLINATION,RA_OF_ASC_NODE,ARG_OF_PERICENTER,MEAN_ANOMALY,BSTAR,MEAN_MOTION_DOT,MEAN_MOTION_DDOT,TLE_LINE0,TLE_LINE1,TLE_LINE2,SEMIMAJOR_AXIS,PERIOD,APOGEE,PERIGEE,DECAYED
53895.0,STARLINK-5032,PAYLOAD,2024-05-19 23:37:22,15.08857251,0.0001493,53.2172,41.0781,134.1932,225.9183,0.0016165,0.00025544,0.0,0 STARLINK-5032,1 53895U 22119K   24140.98429148  .00025544  00000-0  16165-2 0  9992,2 53895  53.2172  41.0781 0001493 134.1932 225.9183 15.08857251 91825,6917.828,95.436,540.725,538.66,0.0
53895.0,STARLINK-5032,PAYLOAD,2024-05-20 17:06:38,15.08842237,0.0001484,53.2178,37.8101,93.6076,266.5085,0.0017319,0.00027384,0.0,0 STARLINK-5032,1 53895U 22119K   24141.71294441  .00027384  00000-0  17319-2 0  9996,2 53895  53.2178  37.8101 0001484  93.6076 266.5085 15.08842237 91930,6917.874,95.437,540.765,538.712,0.0
53895.0,STARLINK-5032,PAYLOAD,2024-05-21 02:38:57,15.08836338,0.0001409,53.218,36.024,92.0122,268.1031,0.00082247,0.00012825,0.0,0 STARLINK-5032,1 53895U 22119K   24142.11038720  .00012825  00000-0  82247-3 0  9994,2 53895  53.2180  36.0240 0001409  92.0122 268.1031 15.08836338 91990,6917.892,95.438,540.731,538.782,0.0
53895.0,STARLINK-5032,PAYLOAD,2024-05-21 20:08:12,15.08831271,0.0001583,53.2176,32.7533,95.8775,264.2397,0.00032272,4.851e-05,0.0,0 STARLINK-5032,1 53895U 22119K   24142.83903379  .00004851  00000-0  32272-3 0  9997,2 53895  53.2176  32.7533 0001583  95.8775 264.2397 15.08831271 92108,6917.907,95.438,540.867,538.677,0.0
53895.0,STARLINK-5032,PAYLOAD,2024-05-21 21:43:35,15.088324,0.0001635,53.2185,32.4558,98.2513,261.8664,0.00031389,4.71e-05,0.0,0 STARLINK-5032,1 53895U 22119K   24142.90527388  .00004710  00000-0  31389-3 0  9999,2 53895  53.2185  32.4558 0001635  98.2513 261.8664 15.08832400 92539,6917.904,95.438,540.9,538.638,0.0
53895.0,STARLINK-5032,PAYLOAD,2024-05-22 02:29:44,15.08841326,0.0001487,53.2186,31.5616,96.3667,263.7494,0.00051049,7.846e-05,0.0,0 STARLINK-5032,1 53895U 22119K   24143.10399273  .00007846  00000-0  51049-3 0  9990,2 53895  53.2186  31.5616 0001487  96.3667 263.7494 15.08841326 92561,6917.876,95.437,540.77,538.713,0.0
53895.0,STARLINK-5032,PAYLOAD,2024-05-22 21:34:22,15.08844852,0.0001405,53.2183,27.9946,86.8291,273.2862,0.00030871,4.629e-05,0.0,0 STARLINK-5032,1 53895U 22119K   24143.89887211  .00004629  00000-0  30871-3 0  9996,2 53895  53.2183  27.9946 0001405  86.8291 273.2862 15.08844852 92685,6917.866,95.437,540.703,538.759,0.0
53895.0,STARLINK-5032,PAYLOAD,2024-05-23 02:20:31,15.08849364,0.0001503,53.2185,27.1003,102.4922,257.6239,0.00033823,5.1e-05,0.0,0 STARLINK-5032,1 53895U 22119K   24144.09758872  .00005100  00000-0  33823-3 0  9994,2 53895  53.2185  27.1003 0001503 102.4922 257.6239 15.08849364 92292,6917.852,95.437,540.757,538.677,0.0
53895.0,STARLINK-5032,PAYLOAD,2024-05-23 21:25:09,15.08844286,0.0001865,53.2184,23.5321,114.5993,245.5194,9.1968e-05,1.176e-05,0.0,0 STARLINK-5032,1 53895U 22119K   24144.89246957  .00001176  00000-0  91968-4 0  9992,2 53895  53.2184  23.5321 0001865 114.5993 245.5194 15.08844286 92831,6917.867,95.437,541.022,538.442,0.0
53895.0,STARLINK-5032,PAYLOAD,2024-05-24 19:40:33,15.08840998,0.0001877,53.2183,19.3672,116.6194,243.499,1.4448e-05,-5.8e-07,0.0,0 STARLINK-5032,1 53895U 22119K   24145.81983078 -.00000058  00000-0  14448-4 0  9994,2 53895  53.2183  19.3672 0001877 116.6194 243.4990 15.08840998 92557,6917.877,95.437,541.041,538.444,0.0
53895.0,STARLINK-5032,PAYLOAD,2024-05-24 22:51:20,15.08834129,0.0002073,53.2172,18.7904,133.0348,227.0818,-0.00020939,-3.619e-05,0.0,0 STARLINK-5032,1 53895U 22119K   24145.95231563 -.00003619  00000-0 -20939-3 0  9992,2 53895  53.2172  18.7904 0002073 133.0348 227.0818 15.08834129 92993,6917.898,95.438,541.197,538.329,0.0
53895.0,STARLINK-5032,PAYLOAD,2024-05-25 14:45:11,15.08836788,0.0001426,53.2159,15.8094,92.6194,267.4962,7.3351e-05,8.8e-06,0.0,0 STARLINK-5032,1 53895U 22119K   24146.61471569  .00000880  00000-0  73351-4 0  9990,2 53895  53.2159  15.8094 0001426  92.6194 267.4962 15.08836788 93099,6917.89,95.438,540.742,538.769,0.0
53895.0,STARLINK-5032,PAYLOAD,2024-05-25 21:06:44,15.08838302,0.0001382,53.2178,14.6299,88.2951,271.82,0.00011571,1.554e-05,0.0,0 STARLINK-5032,1 53895U 22119K   24146.87967941  .00001554  00000-0  11571-3 0  9996,2 53895  53.2178  14.6299 0001382  88.2951 271.8200 15.08838302 92713,6917.886,95.438,540.707,538.795,0.0
53895.0,STARLINK-5032,PAYLOAD,2024-05-26 00:17:29,15.08853887,0.0001386,53.2162,14.0322,113.0519,247.0619,9.7064e-05,1.258e-05,0.0,0 STARLINK-5032,1 53895U 22119K   24147.01214994  .00001258  00000-0  97064-4 0  9999,2 53895  53.2162  14.0322 0001386 113.0519 247.0619 15.08853887 92734,6917.838,95.437,540.662,538.744,0.0
53895.0,STARLINK-5032,PAYLOAD,2024-05-26 14:35:58,15.08842245,0.0001491,53.2161,11.3458,83.1654,276.9508,8.099e-05,1.001e-05,0.0,0 STARLINK-5032,1 53895U 22119K   24147.60831727  .00001001  00000-0  80990-4 0  9999,2 53895  53.2161  11.3458 0001491  83.1654 276.9508 15.08842245 93248,6917.874,95.437,540.77,538.707,0.0
53895.0,STARLINK-5032,PAYLOAD,2024-05-26 20:57:30,15.08848505,0.0001322,53.2167,10.1556,83.5721,276.5421,0.00015373,2.16e-05,0.0,0 STARLINK-5032,1 53895U 22119K   24147.87327389  .00002160  00000-0  15373-3 0  9991,2 53895  53.2167  10.1556 0001322  83.5721 276.5421 15.08848505 92864,6917.854,95.437,540.634,538.805,0.0
53895.0,STARLINK-5032,PAYLOAD,2024-05-26 22:32:53,15.08851792,0.0001318,53.2171,9.8598,92.6867,267.4276,0.00023007,3.377e-05,0.0,0 STARLINK-5032,1 53895U 22119K   24147.93951162  .00003377  00000-0  23007-3 0  9994,2 53895  53.2171   9.8598 0001318  92.6867 267.4276 15.08851792 93294,6917.844,95.437,540.621,538.798,0.0
53895.0,STARLINK-5032,PAYLOAD,2024-05-27 08:05:14,15.08815095,0.0001714,53.2176,8.0791,125.9692,234.1459,0.0011026,0.00017291,0.0,0 STARLINK-5032,1 53895U 22119K   24148.33697669  .00017291  00000-0  11026-2 0  9995,2 53895  53.2176   8.0791 0001714 125.9692 234.1459 15.08815095 92931,6917.957,95.439,541.007,538.636,0.0
53895.0,STARLINK-5032,PAYLOAD,2024-05-27 14:26:44,15.08862388,9.92e-05,53.2173,6.8885,106.3076,253.8025,-0.00046737,-7.723e-05,0.0,0 STARLINK-5032,1 53895U 22119K   24148.60190360 -.00007723  00000-0 -46737-3 0  9990,2 53895  53.2173   6.8885 0000992 106.3076 253.8025 15.08862388 93399,6917.812,95.436,540.363,538.991,0.0
53895.0,STARLINK-5032,PAYLOAD,2024-05-27 20:48:18,15.08840046,0.0001567,53.2185,5.6971,83.7825,276.3346,0.0001348,1.858e-05,0.0,0 STARLINK-5032,1 53895U 22119K   24148.86687878  .00001858  00000-0  13480-3 0  9993,2 53895  53.2185   5.6971 0001567  83.7825 276.3346 15.08840046 93016,6917.88,95.438,540.829,538.661,0.0
53895.0,STARLINK-5032,PAYLOAD,2024-05-28 07:56:00,15.08844452,0.0001525,53.2186,3.6161,81.2829,278.8336,9.2697e-05,1.188e-05,0.0,0 STARLINK-5032,1 53895U 22119K   24149.33055621  .00001188  00000-0  92697-4 0  9995,2 53895  53.2186   3.6161 0001525  81.2829 278.8336 15.08844452 93502,6917.867,95.437,540.787,538.677,0.0
53895.0,STARLINK-5032,PAYLOAD,2024-05-28 20:39:05,15.08843114,0.0001459,53.2186,1.2365,90.1767,269.9393,2.8361e-05,1.63e-06,0.0,0 STARLINK-5032,1 53895U 22119K   24149.86047647  .00000163  00000-0  28361-4 0  9991,2 53895  53.2186   1.2365 0001459  90.1767 269.9393 15.08843114 93584,6917.871,95.437,540.745,538.727,0.0
53895.0,STARLINK-5032,PAYLOAD,2024-05-28 23:49:51,15.08847513,0.0001453,53.2186,0.6398,93.879,266.2368,1.1324e-05,-1.08e-06,0.0,0 STARLINK-5032,1 53895U 22119K   24149.99295318 -.00000108  00000-0  11324-4 0  9996,2 53895  53.2186   0.6398 0001453  93.8790 266.2368 15.08847513 93188,6917.857,95.437,540.728,538.717,0.0
53895.0,STARLINK-5032,PAYLOAD,2024-05-29 20:29:53,15.08782651,0.0001811,53.2185,356.7721,100.7193,259.4003,0.001005,0.00015718,0.0,0 STARLINK-5032,1 53895U 22119K   24150.85409186  .00015718  00000-0  10050-2 0  9998,2 53895  53.2185 356.7721 0001811 100.7193 259.4003 15.08782651 93311,6918.056,95.441,541.174,538.668,0.0
53895.0,STARLINK-5032,PAYLOAD,2024-05-29 23:40:37,15.08846601,0.0001472,53.2184,356.178,104.5372,255.5783,7.9958e-05,9.85e-06,0.0,0 STARLINK-5032,1 53895U 22119K   24150.98655047  .00000985  00000-0  79958-4 0  9995,2 53895  53.2184 356.1780 0001472 104.5372 255.5783 15.08846601 93333,6917.86,95.437,540.744,538.707,0.0
53895.0,STARLINK-5032,PAYLOAD,2024-05-30 13:59:07,15.08836989,0.0001338,53.2181,353.4991,95.8548,264.2596,3.0077e-05,1.91e-06,0.0,0 STARLINK-5032,1 53895U 22119K   24151.58271995  .00000191  00000-0  30077-4 0  9996,2 53895  53.2181 353.4991 0001338  95.8548 264.2596 15.08836989 93845,6917.89,95.438,540.68,538.829,0.0
53895.0,STARLINK-5032,PAYLOAD,2024-05-30 20:20:39,15.08842141,0.0001293,53.2179,352.309,94.641,265.4729,4.014e-05,3.51e-06,0.0,0 STARLINK-5032,1 53895U 22119K   24151.84767583  .00000351  00000-0  40140-4 0  9998,2 53895  53.2179 352.3090 0001293  94.6410 265.4729 15.08842141 93461,6917.874,95.437,540.633,538.844,0.0
53895.0,STARLINK-5032,PAYLOAD,2024-05-31 20:11:26,15.08841507,0.0001453,53.2179,347.8567,120.9493,239.1642,-3.9194e-05,-9.12e-06,0.0,0 STARLINK-5032,1 53895U 22119K   24152.84128092 -.00000912  00000-0 -39194-4 0  9997,2 53895  53.2179 347.8567 0001453 120.9493 239.1642 15.08841507 93615,6917.876,95.437,540.746,538.736,0.0
53895.0,STARLINK-5032,PAYLOAD,2024-06-01 05:43:45,15.0884805,0.0001405,53.2184,346.0721,120.5871,239.526,-4.6148e-05,-1.022e-05,0.0,0 STARLINK-5032,1 53895U 22119K   24153.23871664 -.00001022  00000-0 -46148-4 0  9991,2 53895  53.2184 346.0721 0001405 120.5871 239.5260 15.08848050 94090,6917.856,95.437,540.693,538.749,0.0
53895.0,STARLINK-5032,PAYLOAD,2024-06-01 21:37:36,15.08844437,0.0001241,53.2189,343.097,91.0109,269.1025,6.6588e-05,7.72e-06,0.0,0 STARLINK-5032,1 53895U 22119K   24153.90111995  .00000772  00000-0  66588-4 0  9998,2 53895  53.2189 343.0970 0001241  91.0109 269.1025 15.08844437 93779,6917.867,95.437,540.59,538.873,0.0
